0 SL-6 R/B(2)
1 15439U 84124H   13282.72614281  .00001002  00000-0  36989-1 0  6376
2 15439 063.8554 151.7848 6709341 279.3938 346.3458 01.96348431163732
0 SL-6 R/B(2)
1 15439U 84124H   13285.45665226  .00000583  00000-0 -16882-1 0  6389
2 15439 063.8561 151.5241 6709258 279.3698 116.4870 01.96354379163782
0 SL-6 R/B(2)
1 15439U 84124H   13288.64380683 -.00000095  00000-0 -62404-1 0  6395
2 15439 063.8565 151.2196 6709105 279.3414 209.4925 01.96359989163842
0 SL-6 R/B(2)
1 15439U 84124H   13295.49793363 -.00000507  00000-0  43454-1 0  6402
2 15439 063.8573 150.5650 6708561 279.2769 014.7533 01.96355513163981
